start=new Date('2023-03-02T00:00:00.000Z').valueOf();
sats=[{"TLE_LINE1":"1 52857U 22062AD  23060.92281529  .00013559  00000-0  86857-3 0  9998","ECCENTRICITY":"0.00012200","TLE_LINE2":"2 52857  53.2174 299.1205 0001220  94.0636 266.0495 15.08831901 39293","APOAPSIS":"540.614","GP_ID":"227319149","SEMIMAJOR_AXIS":"6917.905","CENTER_NAME":"EARTH","FILE":"3848834","EPOCH":"2023-03-01T22:08:51.241056","LAUNCH_DATE":"2022-06-17","OBJECT_TYPE":"PAYLOAD","PERIAPSIS":"538.926","BSTAR":"0.00086857000000","INCLINATION":"53.2174","MEAN_MOTION_DDOT":"0.0000000000000","EPHEMERIS_TYPE":"0","DECAY_DATE":null,"MEAN_MOTION":"15.08831901","MEAN_ELEMENT_THEORY":"SGP4","OBJECT_NAME":"STARLINK-4199","ELEMENT_SET_NO":"999","MEAN_MOTION_DOT":"0.00013559","REV_AT_EPOCH":"3929","OBJECT_ID":"2022-062AD","CLASSIFICATION_TYPE":"U","NORAD_CAT_ID":"52857","RA_OF_ASC_NODE":"299.1205","REF_FRAME":"TEME","MEAN_ANOMALY":"266.0495","RCS_SIZE":"LARGE","TIME_SYSTEM":"UTC","ARG_OF_PERICENTER":"94.0636","SITE":"AFETR","PERIOD":"95.438","COUNTRY_CODE":"US"},{"MEAN_MOTION_DDOT":"0.0000000000000","INCLINATION":"53.2173","LAUNCH_DATE":"2022-06-17","OBJECT_TYPE":"PAYLOAD","PERIAPSIS":"538.652","BSTAR":"0.00168250000000","CENTER_NAME":"EARTH","FILE":"3848834","EPOCH":"2023-03-01T22:20:49.705440","SEMIMAJOR_AXIS":"6917.888","GP_ID":"227319399","TLE_LINE1":"1 52858U 22062AE  23060.93113085  .00026589  00000-0  16825-2 0  9995","TLE_LINE2":"2 52858  53.2173 299.0847 0001592  99.6652 260.4520 15.08837392 39292","APOAPSIS":"540.855","ECCENTRICITY":"0.00015920","PERIOD":"95.438","COUNTRY_CODE":"US","ARG_OF_PERICENTER":"99.6652","SITE":"AFETR","MEAN_ANOMALY":"260.4520","RCS_SIZE":"LARGE","TIME_SYSTEM":"UTC","REV_AT_EPOCH":"3929","OBJECT_ID":"2022-062AE","CLASSIFICATION_TYPE":"U","RA_OF_ASC_NODE":"299.0847","NORAD_CAT_ID":"52858","REF_FRAME":"TEME","OBJECT_NAME":"STARLINK-4198","ELEMENT_SET_NO":"999","MEAN_MOTION_DOT":"0.00026589","DECAY_DATE":null,"MEAN_MOTION":"15.08837392","MEAN_ELEMENT_THEORY":"SGP4","EPHEMERIS_TYPE":"0"},{"SEMIMAJOR_AXIS":"6917.921","EPOCH":"2023-03-01T22:03:33.168960","CENTER_NAME":"EARTH","FILE":"3848834","TLE_LINE1":"1 52859U 22062AF  23060.91913390  .00017759  00000-0  11315-2 0  9999","TLE_LINE2":"2 52859  53.2165 299.1400 0000527 138.2203 221.8830 15.08826657 39296","APOAPSIS":"540.151","ECCENTRICITY":"0.00005270","GP_ID":"227320150","INCLINATION":"53.2165","MEAN_MOTION_DDOT":"0.0000000000000","PERIAPSIS":"539.422","BSTAR":"0.00113150000000","LAUNCH_DATE":"2022-06-17","OBJECT_TYPE":"PAYLOAD","MEAN_MOTION_DOT":"0.00017759","OBJECT_NAME":"STARLINK-4196","ELEMENT_SET_NO":"999","OBJECT_ID":"2022-062AF","CLASSIFICATION_TYPE":"U","NORAD_CAT_ID":"52859","RA_OF_ASC_NODE":"299.1400","REF_FRAME":"TEME","REV_AT_EPOCH":"3929","EPHEMERIS_TYPE":"0","MEAN_ELEMENT_THEORY":"SGP4","MEAN_MOTION":"15.08826657","DECAY_DATE":null,"COUNTRY_CODE":"US","PERIOD":"95.438","TIME_SYSTEM":"UTC","MEAN_ANOMALY":"221.8830","RCS_SIZE":"LARGE","SITE":"AFETR","ARG_OF_PERICENTER":"138.2203"},{"SITE":"AFETR","ARG_OF_PERICENTER":"67.4607","RCS_SIZE":"LARGE","MEAN_ANOMALY":"292.6526","TIME_SYSTEM":"UTC","PERIOD":"95.438","COUNTRY_CODE":"US","DECAY_DATE":null,"MEAN_MOTION":"15.08830865","MEAN_ELEMENT_THEORY":"SGP4","EPHEMERIS_TYPE":"0","REV_AT_EPOCH":"3929","NORAD_CAT_ID":"52860","REF_FRAME":"TEME","RA_OF_ASC_NODE":"299.1084","OBJECT_ID":"2022-062AG","CLASSIFICATION_TYPE":"U","ELEMENT_SET_NO":"999","OBJECT_NAME":"STARLINK-4191","MEAN_MOTION_DOT":"0.00047170","OBJECT_TYPE":"PAYLOAD","LAUNCH_DATE":"2022-06-17","BSTAR":"0.00296290000000","PERIAPSIS":"538.852","MEAN_MOTION_DDOT":"0.0000000000000","INCLINATION":"53.2160","GP_ID":"227320896","TLE_LINE2":"2 52860  53.2160 299.1084 0001332  67.4607 292.6526 15.08830865 39291","APOAPSIS":"540.695","ECCENTRICITY":"0.00013320","TLE_LINE1":"1 52860U 22062AG  23060.92650918  .00047170  00000-0  29629-2 0  9993","FILE":"3848834","CENTER_NAME":"EARTH","EPOCH":"2023-03-01T22:14:10.393152","SEMIMAJOR_AXIS":"6917.908"},{"SITE":"AFETR","ARG_OF_PERICENTER":"91.1525","TIME_SYSTEM":"UTC","RCS_SIZE":"LARGE","MEAN_ANOMALY":"268.9653","COUNTRY_CODE":"US","PERIOD":"95.437","MEAN_ELEMENT_THEORY":"SGP4","MEAN_MOTION":"15.08846251","DECAY_DATE":null,"EPHEMERIS_TYPE":"0","RA_OF_ASC_NODE":"299.2274","REF_FRAME":"TEME","NORAD_CAT_ID":"52861","CLASSIFICATION_TYPE":"U","OBJECT_ID":"2022-062AH","REV_AT_EPOCH":"3929","MEAN_MOTION_DOT":"0.00015115","ELEMENT_SET_NO":"999","OBJECT_NAME":"STARLINK-4112","BSTAR":"0.00096557000000","PERIAPSIS":"538.602","OBJECT_TYPE":"PAYLOAD","LAUNCH_DATE":"2022-06-17","MEAN_MOTION_DDOT":"0.0000000000000","INCLINATION":"53.2145","GP_ID":"227319649","APOAPSIS":"540.850","TLE_LINE2":"2 52861  53.2145 299.2274 0001625  91.1525 268.9653 15.08846251 39298","ECCENTRICITY":"0.00016250","TLE_LINE1":"1 52861U 22062AH  23060.90167756  .00015115  00000-0  96557-3 0  9994","EPOCH":"2023-03-01T21:38:24.941184","FILE":"3848834","CENTER_NAME":"EARTH","SEMIMAJOR_AXIS":"6917.861"},{"CENTER_NAME":"EARTH","FILE":"3848834","EPOCH":"2023-03-01T21:58:15.359520","SEMIMAJOR_AXIS":"6917.859","GP_ID":"227319899","TLE_LINE1":"1 52862U 22062AJ  23060.91545555  .00026410  00000-0  16709-2 0  9993","TLE_LINE2":"2 52862  53.2178 299.1522 0001736  64.4396 295.6775 15.08847011 39299","APOAPSIS":"540.925","ECCENTRICITY":"0.00017360","MEAN_MOTION_DDOT":"0.0000000000000","INCLINATION":"53.2178","LAUNCH_DATE":"2022-06-17","OBJECT_TYPE":"PAYLOAD","PERIAPSIS":"538.523","BSTAR":"0.00167090000000","REV_AT_EPOCH":"3929","CLASSIFICATION_TYPE":"U","OBJECT_ID":"2022-062AJ","REF_FRAME":"TEME","RA_OF_ASC_NODE":"299.1522","NORAD_CAT_ID":"52862","OBJECT_NAME":"STARLINK-4010","ELEMENT_SET_NO":"999","MEAN_MOTION_DOT":"0.00026410","MEAN_MOTION":"15.08847011","DECAY_DATE":null,"MEAN_ELEMENT_THEORY":"SGP4","EPHEMERIS_TYPE":"0","PERIOD":"95.437","COUNTRY_CODE":"US","SITE":"AFETR","ARG_OF_PERICENTER":"64.4396","MEAN_ANOMALY":"295.6775","RCS_SIZE":"LARGE","TIME_SYSTEM":"UTC"},{"EPOCH":"2023-03-01T21:47:39.462432","CENTER_NAME":"EARTH","FILE":"3848834","SEMIMAJOR_AXIS":"6917.925","GP_ID":"227320649","TLE_LINE1":"1 52863U 22062AK  23060.90809563  .00014376  00000-0  91985-3 0  9993","TLE_LINE2":"2 52863  53.2172 299.1858 0001150  37.5453 322.5619 15.08825396 39290","APOAPSIS":"540.586","ECCENTRICITY":"0.00011500","MEAN_MOTION_DDOT":"0.0000000000000","INCLINATION":"53.2172","PERIAPSIS":"538.994","BSTAR":"0.00091985000000","LAUNCH_DATE":"2022-06-17","OBJECT_TYPE":"PAYLOAD","CLASSIFICATION_TYPE":"U","OBJECT_ID":"2022-062AK","REF_FRAME":"TEME","RA_OF_ASC_NODE":"299.1858","NORAD_CAT_ID":"52863","REV_AT_EPOCH":"3929","MEAN_MOTION_DOT":"0.00014376","OBJECT_NAME":"STARLINK-4270","ELEMENT_SET_NO":"999","MEAN_ELEMENT_THEORY":"SGP4","DECAY_DATE":null,"MEAN_MOTION":"15.08825396","EPHEMERIS_TYPE":"0","COUNTRY_CODE":"US","PERIOD":"95.438","ARG_OF_PERICENTER":"37.5453","SITE":"AFETR","TIME_SYSTEM":"UTC","MEAN_ANOMALY":"322.5619","RCS_SIZE":"LARGE"},{"PERIOD":"95.437","COUNTRY_CODE":"US","ARG_OF_PERICENTER":"106.6229","SITE":"AFETR","RCS_SIZE":"LARGE","MEAN_ANOMALY":"253.4909","TIME_SYSTEM":"UTC","REV_AT_EPOCH":"3929","REF_FRAME":"TEME","RA_OF_ASC_NODE":"299.1705","NORAD_CAT_ID":"52864","OBJECT_ID":"2022-062AL","CLASSIFICATION_TYPE":"U","ELEMENT_SET_NO":"999","OBJECT_NAME":"STARLINK-4267","MEAN_MOTION_DOT":"0.00029446","MEAN_MOTION":"15.08847757","DECAY_DATE":null,"MEAN_ELEMENT_THEORY":"SGP4","EPHEMERIS_TYPE":"0","MEAN_MOTION_DDOT":"0.0000000000000","INCLINATION":"53.2164","OBJECT_TYPE":"PAYLOAD","LAUNCH_DATE":"2022-06-17","BSTAR":"0.00186010000000","PERIAPSIS":"538.803","FILE":"3848834","CENTER_NAME":"EARTH","EPOCH":"2023-03-01T21:52:57.410976","SEMIMAJOR_AXIS":"6917.857","GP_ID":"227320397","TLE_LINE2":"2 52864  53.2164 299.1705 0001328 106.6229 253.4909 15.08847757 39298","APOAPSIS":"540.640","ECCENTRICITY":"0.00013280","TLE_LINE1":"1 52864U 22062AL  23060.91177559  .00029446  00000-0  18601-2 0  9995"},{"TLE_LINE1":"1 52865U 22062AM  23060.89705124  .00018949  00000-0  12057-2 0  9993","TLE_LINE2":"2 52865  53.2143 299.2439 0000961 137.2446 222.8621 15.08832808 39296","APOAPSIS":"540.432","ECCENTRICITY":"0.00009610","GP_ID":"227319150","SEMIMAJOR_AXIS":"6917.902","EPOCH":"2023-03-01T21:31:45.227136","CENTER_NAME":"EARTH","FILE":"3848834","PERIAPSIS":"539.103","BSTAR":"0.00120570000000","LAUNCH_DATE":"2022-06-17","OBJECT_TYPE":"PAYLOAD","INCLINATION":"53.2143","MEAN_MOTION_DDOT":"0.0000000000000","EPHEMERIS_TYPE":"0","MEAN_ELEMENT_THEORY":"SGP4","DECAY_DATE":null,"MEAN_MOTION":"15.08832808","MEAN_MOTION_DOT":"0.00018949","OBJECT_NAME":"STARLINK-4274","ELEMENT_SET_NO":"999","CLASSIFICATION_TYPE":"U","OBJECT_ID":"2022-062AM","NORAD_CAT_ID":"52865","RA_OF_ASC_NODE":"299.2439","REF_FRAME":"TEME","REV_AT_EPOCH":"3929","TIME_SYSTEM":"UTC","MEAN_ANOMALY":"222.8621","RCS_SIZE":"LARGE","ARG_OF_PERICENTER":"137.2446","SITE":"AFETR","COUNTRY_CODE":"US","PERIOD":"95.438"},{"ELEMENT_SET_NO":"999","OBJECT_NAME":"STARLINK-4272","MEAN_MOTION_DOT":"0.00019801","REV_AT_EPOCH":"3929","NORAD_CAT_ID":"52866","RA_OF_ASC_NODE":"299.2090","REF_FRAME":"TEME","OBJECT_ID":"2022-062AN","CLASSIFICATION_TYPE":"U","EPHEMERIS_TYPE":"0","DECAY_DATE":null,"MEAN_MOTION":"15.08825473","MEAN_ELEMENT_THEORY":"SGP4","PERIOD":"95.438","COUNTRY_CODE":"US","RCS_SIZE":"LARGE","MEAN_ANOMALY":"287.7298","TIME_SYSTEM":"UTC","SITE":"AFETR","ARG_OF_PERICENTER":"72.3829","SEMIMAJOR_AXIS":"6917.925","FILE":"3848834","CENTER_NAME":"EARTH","EPOCH":"2023-03-01T21:42:21.691872","TLE_LINE2":"2 52866  53.2143 299.2090 0001233  72.3829 287.7298 15.08825473 39297","APOAPSIS":"540.643","ECCENTRICITY":"0.00012330","TLE_LINE1":"1 52866U 22062AN  23060.90441773  .00019801  00000-0  12592-2 0  9995","GP_ID":"227319400","INCLINATION":"53.2143","MEAN_MOTION_DDOT":"0.0000000000000","OBJECT_TYPE":"PAYLOAD","LAUNCH_DATE":"2022-06-17","BSTAR":"0.00125920000000","PERIAPSIS":"538.937"}];
